[{"OBJECT_NAME":"OBJECT A","OBJECT_ID":"2024-203A","EPOCH":"2026-03-09T23:31:20.812800","MEAN_MOTION":15.27300571,"ECCENTRICITY":0.00108989,"INCLINATION":97.4288,"RA_OF_ASC_NODE":139.5608,"ARG_OF_PERICENTER":322.6893,"MEAN_ANOMALY":37.3588,"EPHEMERIS_TYPE":0,"CLASSIFICATION_TYPE":"U","NORAD_CAT_ID":61869,"ELEMENT_SET_NO":999,"REV_AT_EPOCH":7380,"BSTAR":0.00061472876,"MEAN_MOTION_DOT":0.00016411,"MEAN_MOTION_DDOT":0},{"OBJECT_NAME":"STARLINK-35785","OBJECT_ID":"2025-303P","EPOCH":"2026-03-08T16:48:27.758592","MEAN_MOTION":15.27590097,"ECCENTRICITY":0.00016468,"INCLINATION":42.998,"RA_OF_ASC_NODE":316.3187,"ARG_OF_PERICENTER":260.863,"MEAN_ANOMALY":99.2036,"EPHEMERIS_TYPE":0,"CLASSIFICATION_TYPE":"U","NORAD_CAT_ID":67176,"ELEMENT_SET_NO":999,"REV_AT_EPOCH":1258,"BSTAR":0.001349336,"MEAN_MOTION_DOT":0.00037067,"MEAN_MOTION_DDOT":0}]
